ALOS-4 (DAICHI-4)       
1 60182U 24123A   24215.93150361  .00004165  00000+0  56421-3 0  9997
2 60182  97.9221 311.9239 0001527 107.0045 253.1334 14.79481134  4859
